HST                     
1 20580U 90037B   23133.44736547  .00004239  00000+0  22352-3 0  9990
2 20580  28.4684 139.1117 0002374   8.5950 115.7277 15.13014715616196
POLAR                   
1 23802U 96013A   23132.64719711  .00000194  00000+0  00000+0 0  9993
2 23802  78.8827 238.4400 5765764 247.5592  43.5564  1.29847136130161
SWAS                    
1 25560U 98071A   23132.72579306  .00005189  00000+0  46065-3 0  9999
2 25560  69.8993 235.6147 0008404 204.9582 155.1171 14.96732939327251
CXO                     
1 25867U 99040B   23133.58197526  .00000729  00000+0  00000+0 0  9991
2 25867  37.9294 201.3797 9044662 258.6477 359.9772  0.37810649 13052
XMM-NEWTON              
1 25989U 99066A   23134.57240777 -.00000116  00000+0  00000+0 0  9992
2 25989  69.1920 298.9608 5591698  82.8160   0.0097  0.50128380 17339
TERRA                   
1 25994U 99068A   23133.57501385  .00000684  00000+0  15456-3 0  9998
2 25994  98.0957 202.8134 0002246 140.5996 325.2829 14.59213737244617
CLUSTER II-FM7 (SAMBA)  
1 26410U 00041A   23134.05578925  .00000463  00000+0  00000+0 0  9993
2 26410 135.9416 351.4930 6440185 205.2399   0.5363  0.44207245 15288
CLUSTER II-FM6 (SALSA)  
1 26411U 00041B   23134.04986509  .00000468  00000+0  00000+0 0  9999
2 26411 140.4397 359.1106 8130993 212.8476   1.0168  0.44215573 15331
CLUSTER II-FM5 (RUMBA)  
1 26463U 00045A   23134.06095910  .00000612  00000+0  00000+0 0  9990
2 26463 143.6345 359.0999 7626890 213.5865   0.5980  0.44215169 15203
CLUSTER II-FM8 (TANGO)  
1 26464U 00045B   23131.79454048  .00000396  00000+0  00000+0 0  9998
2 26464 135.9059 351.4430 6430498 205.2002   0.5767  0.44220564 15278
ODIN                    
1 26702U 01007A   23133.54512606  .00006619  00000+0  36905-3 0  9993
2 26702  97.5059 147.7077 0008813 220.6697 139.3877 15.13881763216133
TIMED                   
1 26998U 01055B   23133.59478661  .00001607  00000+0  17195-3 0  9992
2 26998  74.0719 341.5464 0001157 178.3862 181.7323 14.89662567162143
INTEGRAL                
1 27540U 02048A   23132.17554605  .00000431  00000+0  00000+0 0  9992
2 27540  83.2578  40.6433 8791238 292.4360 350.8576  0.37574274 22374
CORIOLIS                
1 27640U 03001A   23133.53804169  .00000170  00000+0  10174-3 0  9994
2 27640  98.7155 142.1999 0013308 224.6289 135.3817 14.19255429 53805
SORCE                   
1 27651U 03004A   23133.50470348  .00002984  00000+0  30306-3 0  9998
2 27651  39.9930 172.6369 0021529 275.5097  84.3237 14.91806252102338
MOST                    
1 27843U 03031D   23133.58265646  .00000142  00000+0  86044-4 0  9997
2 27843  98.7075 141.3536 0008796 276.5996  83.4180 14.20791578 30134
SCISAT 1                
1 27858U 03036A   23133.46546618  .00001304  00000+0  18470-3 0  9994
2 27858  73.9330 252.2775 0008415 221.3062 138.7477 14.78170312 64181
SWIFT                   
1 28485U 04047A   23133.38064465  .00008186  00000+0  45460-3 0  9994
2 28485  20.5555 148.9168 0009853 171.0442 189.0169 15.10470675 13343
CLOUDSAT                
1 29107U 06016A   23133.52777862  .00000631  00000+0  12979-3 0  9998
2 29107  98.3725 102.7516 0003147  21.4607 338.6726 14.64043620907306
CALIPSO                 
1 29108U 06016B   23133.52746086  .00001943  00000+0  37997-3 0  9997
2 29108  98.3723 102.2369 0001538  86.9484 273.1894 14.64029425907291
HINODE (SOLAR-B)        
1 29479U 06041A   23133.59476912  .00001109  00000+0  21359-3 0  9990
2 29479  98.1072 149.4327 0016766 265.0567  94.8722 14.65408954889099
SJ-6C                   
1 29505U 06046A   23133.48613399  .00006020  00000+0  50680-3 0  9991
2 29505  97.7525 157.3528 0006843  97.4539 262.7474 14.98585221902072
SJ-6D                   
1 29506U 06046B   23133.57761780  .00002474  00000+0  23087-3 0  9990
2 29506  97.7725 157.1008 0002107 150.1558 209.9778 14.95113553901445
AGILE                   
1 31135U 07013A   23133.17974387  .00039395  00000+0  61168-3 0  9995
2 31135   2.4666 133.1586 0007955 282.6550  77.2615 15.51497842527963
AIM                     
1 31304U 07015A   23133.38149763  .00023815  00000+0  85704-3 0  9992
2 31304  97.8693  72.1283 0001917 347.2551  12.8638 15.28601497881360
FGRST (GLAST)           
1 33053U 08029A   23133.17065924  .00003596  00000+0  17679-3 0  9994
2 33053  25.5825  76.6154 0011844  46.7183 313.4340 15.13896923823681
WISE                    
1 36119U 09071A   23133.53954780  .00016998  00000+0  41301-3 0  9994
2 36119  97.1989 166.9071 0002705 147.2057 212.9359 15.41057023746180
SDO                     
1 36395U 10005A   23133.43224563 -.00000051  00000+0  00000+0 0  9998
2 36395  32.3093 103.9114 0001990 241.0206 299.7966  1.00271661 48724
CRYOSAT 2               
1 36508U 10013A   23133.58681514  .00000155  00000+0  37771-4 0  9996
2 36508  92.0236   4.0518 0003553 168.0569 192.0723 14.51900265694034
X-SAT                   
1 37389U 11015C   23133.29496753  .00000175  00000+0  93040-4 0  9997
2 37389  98.3041 154.2550 0015468  66.3125 293.9679 14.24521804627164
GCOM-W1 (SHIZUKU)       
1 38337U 12025A   23133.46860456  .00000946  00000+0  21976-3 0  9991
2 38337  98.1998  74.2935 0001158  56.2456  61.0807 14.57143182584378
NUSTAR                  
1 38358U 12031A   23133.11609723  .00005687  00000+0  47862-3 0  9990
2 38358   6.0251 121.7837 0009983  62.9379 297.1768 14.91740521594111
NEOSSAT                 
1 39089U 13009D   23133.53443050  .00000261  00000+0  10695-3 0  9990
2 39089  98.4112 326.4111 0011648  21.7330 338.4347 14.34858737534543
BRITE-AUSTRIA           
1 39091U 13009F   23133.42896173  .00000346  00000+0  13518-3 0  9990
2 39091  98.3932 326.9646 0010822  21.5762 338.5878 14.35471648534760
IRIS                    
1 39197U 13033A   23133.53073041  .00001594  00000+0  21512-3 0  9996
2 39197  97.9706 321.6801 0027922  43.0737 317.2653 14.80268780532782
HISAKI (SPRINT-A)       
1 39253U 13049A   23133.23844961  .00000149  00000+0  11040-3 0  9990
2 39253  29.7187 208.8059 0136772 209.6568 149.6191 13.55322697477879
CASSIOPE                
1 39265U 13055A   23133.52036840  .00020059  00000+0  48704-3 0  9990
2 39265  80.9587 274.6560 0574602  52.6714 312.5419 14.50804353499957
STSAT-3                 
1 39422U 13066G   23133.51900792  .00002399  00000+0  24054-3 0  9991
2 39422  97.4855 126.4093 0020132 260.4248  99.4709 14.92082037515026
SWARM B                 
1 39451U 13067A   23133.53884256  .00004476  00000+0  19041-3 0  9990
2 39451  87.7469 322.4890 0002991  97.1721 262.9866 15.22762888511118
SWARM A                 
1 39452U 13067B   23133.49905800  .00006473  00000+0  22096-3 0  9998
2 39452  87.3528 106.3684 0003272  99.6191 260.5428 15.30126116532525
SWARM C                 
1 39453U 13067C   23133.49478042  .00006576  00000+0  22467-3 0  9998
2 39453  87.3378 105.1640 0003275  99.6248 260.5372 15.30102033532489
BRITE-CA1 (TORONTO)     
1 40020U 14033L   23133.39302642  .00001259  00000+0  21733-3 0  9993
2 40020  97.8214 281.5430 0084147 291.5277  67.6974 14.67900288476044
OCO 2                   
1 40059U 14035A   23133.51139503  .00000829  00000+0  19416-3 0  9992
2 40059  98.1992  75.0820 0001577  99.5370 260.6007 14.57101330471393
BRITE-PL2 (HEWELIUSZ)   
1 40119U 14049B   23133.50993502  .00002331  00000+0  26956-3 0  9997
2 40119  97.8784 230.9224 0015568 238.3555 121.6142 14.86450719473015
RESURS P2               
1 40360U 14087A   23133.46530666  .00014140  00000+0  32259-3 0  9994
2 40360  97.1808 217.4391 0007385 347.4991 141.1497 15.42971545469015
MMS 1                   
1 40482U 15011A   23132.60262785 -.00000310  00000+0  00000+0 0  9996
2 40482  28.9850  69.6195 9102149  90.7745  17.0225  0.28564412 14246
MMS 2                   
1 40483U 15011B   23123.62500000 -.00000031  00000+0  00000+0 0  9994
2 40483  28.9648  70.6502 9079169  89.7148 173.8817  0.28567413 14181
MMS 3                   
1 40484U 15011C   23131.94054676 -.00000381  00000+0  00000+0 0  9990
2 40484  28.9875  69.6907 9101882  90.6795 308.9205  0.28601710 13975
MMS 4                   
1 40485U 15011D   23131.94054676 -.00000382  00000+0  00000+0 0  9992
2 40485  28.9797  69.6499 9103141  90.7151 308.9175  0.28594880 14181
ASTROSAT                
1 40930U 15052A   23133.34147257  .00002382  00000+0  23814-3 0  9999
2 40930   5.9982 344.5073 0008186 150.7067 209.3520 14.77499998412001
DAMPE                   
1 41173U 15078A   23133.56709372  .00001942  00000+0  79464-4 0  9997
2 41173  97.4044 125.0343 0014861 113.2815  27.8113 15.25451542411883
PISAT                   
1 41784U 16059B   23133.55854450  .00001281  00000+0  24820-3 0  9993
2 41784  97.8724 168.3839 0030830 202.2356 157.7513 14.64624154353990
HXMT (HUIYAN)           
1 42758U 17034A   23133.42955050  .00007618  00000+0  43974-3 0  9994
2 42758  43.0178 330.6306 0007802 188.3030 243.5852 15.12683438326115
FLYING LAPTOP           
1 42831U 17042G   23133.44003803  .00002422  00000+0  23784-3 0  9992
2 42831  97.3941 333.2810 0013033 350.2107   9.8873 14.92983889317301
PICSAT                  
1 43132U 18004X   23133.50658604  .00069785  00000+0  10935-2 0  9996
2 43132  97.3305 215.8445 0005472 228.6770 131.4012 15.53468096297154
ZHANGZHENG-1 (CSES)     
1 43194U 18015C   23133.47705468  .00015439  00000+0  69731-3 0  9999
2 43194  97.5605 269.5464 0006331 101.7093 330.8554 15.21042465292781
ICON                    
1 44628U 19068A   23132.80880216  .00004718  00000+0  39996-3 0  9990
2 44628  26.9889 313.0923 0017657 337.8446  22.1349 14.95168339195869
SALSAT                  
1 46495U 20068K   23133.40778938  .00006396  00000+0  42539-3 0  9991
2 46495  97.7671  81.0561 0014245 234.9469 125.0423 15.07437083143835
IXPE                    
1 49954U 21121A   23131.30166587  .00005701  00000+0  45174-3 0  9990
2 49954   0.2286 131.5489 0010500  80.3385 148.0487 14.93717926 77493
